BEIJING 1               
1 28890U 05043A   24255.50499908  .00001996  00000+0  40203-3 0  9997
2 28890  98.2102  17.7894 0015705 133.2234 227.0282 14.62547938  6517
HUANJING 1A (HJ-1A)     
1 33320U 08041A   24255.55510612  .00005979  00000+0  78226-3 0  9994
2 33320  97.6349 258.3439 0021996  89.8364 270.5369 14.80590977863133
HUANJING 1B (HJ-1B)     
1 33321U 08041B   24255.54571333  .00003864  00000+0  50208-3 0  9992
2 33321  97.6288 262.8466 0039470 132.1438 228.3140 14.80708578863154
YAOGAN-4                
1 33446U 08061A   24255.42560220  .00005344  00000+0  70559-3 0  9998
2 33446  97.8791 185.6968 0015171  12.3557 347.8024 14.80359459850317
DEIMOS-1                
1 35681U 09041A   24255.50815400  .00002720  00000+0  42467-3 0  9994
2 35681  97.6846  72.8377 0002723  98.4364 261.7154 14.73617137812026
UK-DMC 2                
1 35683U 09041C   24255.51275157  .00004061  00000+0  62855-3 0  9999
2 35683  97.7936  39.6824 0001239 100.7506 259.3842 14.73750752811727
DMC3-FM1                
1 40715U 15032A   24255.54849312  .00003121  00000+0  38085-3 0  9995
2 40715  97.7354 131.8886 0006255  24.9540 335.1976 14.84011612494381
DMC3-FM2                
1 40716U 15032B   24255.57091791  .00002986  00000+0  36449-3 0  9999
2 40716  97.7407 133.0376 0008226  25.8487 334.3137 14.84020892494389
DMC3-FM3                
1 40717U 15032C   24255.53338963  .00003197  00000+0  39061-3 0  9999
2 40717  97.7456 134.3177 0009573  21.7682 338.3937 14.83927445494386
